{
  "norad_id": 59541,
  "name": "STARLINK-31481",
  "history": [
    {
      "epoch": "2026-03-28T17:51:36.314784",
      "apogee_km": 483.9736694941066,
      "perigee_km": 482.1070175860232,
      "latitude_deg": -42.14876404539058,
      "longitude_deg": -154.4596502399072,
      "semi_major_axis_km": 6861.177343540065,
      "eccentricity": 0.00013603,
      "inclination_deg": 43.0019,
      "raan_deg": 235.4704,
      "arg_perigee_deg": 269.4044,
      "mean_anomaly_deg": 90.6652,
      "mean_motion_rev_day": 15.27582923
    }
  ]
}